start=new Date('2023-06-11T00:00:00.000Z').valueOf();
sats=[{"ARG_OF_PERICENTER":"349.7056","MEAN_ANOMALY":"10.3915","EPHEMERIS_TYPE":"0","LAUNCH_DATE":"2020-03-18","MEAN_ELEMENT_THEORY":"SGP4","OBJECT_TYPE":"PAYLOAD","FILE":"3929969","SITE":"AFETR","PERIOD":"94.525","ECCENTRICITY":"0.00012050","NORAD_CAT_ID":"45365","REF_FRAME":"TEME","CENTER_NAME":"EARTH","GP_ID":"233651159","DECAY_DATE":null,"TIME_SYSTEM":"UTC","REV_AT_EPOCH":"17894","TLE_LINE2":"2 45365  52.9819 315.6294 0001205 349.7056  10.3915 15.23410175178948","INCLINATION":"52.9819","EPOCH":"2023-06-10T15:56:42.175392","CLASSIFICATION_TYPE":"U","OBJECT_ID":"2020-019F","OBJECT_NAME":"STARLINK-1317","MEAN_MOTION":"15.23410175","PERIAPSIS":"494.737","RCS_SIZE":"LARGE","BSTAR":"0.00212700000000","MEAN_MOTION_DDOT":"0.0000000000000","TLE_LINE1":"1 45365U 20019F   23161.66437703  .00051309  00000-0  21270-2 0  9996","RA_OF_ASC_NODE":"315.6294","APOAPSIS":"496.394","COUNTRY_CODE":"US","MEAN_MOTION_DOT":"0.00051309","SEMIMAJOR_AXIS":"6873.701","ELEMENT_SET_NO":"999"},{"CENTER_NAME":"EARTH","GP_ID":"233650905","DECAY_DATE":null,"REV_AT_EPOCH":"17859","TIME_SYSTEM":"UTC","REF_FRAME":"TEME","NORAD_CAT_ID":"45366","OBJECT_TYPE":"PAYLOAD","LAUNCH_DATE":"2020-03-18","MEAN_ELEMENT_THEORY":"SGP4","SITE":"AFETR","FILE":"3929969","ECCENTRICITY":"0.00003390","PERIOD":"95.592","ARG_OF_PERICENTER":"70.2798","MEAN_ANOMALY":"289.8227","EPHEMERIS_TYPE":"0","APOAPSIS":"547.451","MEAN_MOTION_DOT":"0.00007858","COUNTRY_CODE":"US","SEMIMAJOR_AXIS":"6925.351","ELEMENT_SET_NO":"999","RA_OF_ASC_NODE":"348.2054","TLE_LINE1":"1 45366U 20019G   23161.92490333  .00007858  00000-0  54580-3 0  9995","PERIAPSIS":"546.982","MEAN_MOTION":"15.06399043","OBJECT_NAME":"STARLINK-1262","RCS_SIZE":"LARGE","BSTAR":"0.00054580000000","MEAN_MOTION_DDOT":"0.0000000000000","EPOCH":"2023-06-10T22:11:51.647712","TLE_LINE2":"2 45366  53.0546 348.2054 0000339  70.2798 289.8227 15.06399043178591","INCLINATION":"53.0546","CLASSIFICATION_TYPE":"U","OBJECT_ID":"2020-019G"},{"RA_OF_ASC_NODE":"348.4052","TLE_LINE1":"1 45367U 20019H   23161.88067105  .00005500  00000-0  38786-3 0  9990","ELEMENT_SET_NO":"999","SEMIMAJOR_AXIS":"6925.353","COUNTRY_CODE":"US","MEAN_MOTION_DOT":"0.00005500","APOAPSIS":"547.998","OBJECT_ID":"2020-019H","CLASSIFICATION_TYPE":"U","EPOCH":"2023-06-10T21:08:09.978720","TLE_LINE2":"2 45367  53.0541 348.4052 0001126 100.3337 259.7779 15.06398500178580","INCLINATION":"53.0541","MEAN_MOTION_DDOT":"0.0000000000000","BSTAR":"0.00038786000000","RCS_SIZE":"LARGE","MEAN_MOTION":"15.06398500","PERIAPSIS":"546.438","OBJECT_NAME":"STARLINK-1273","REF_FRAME":"TEME","NORAD_CAT_ID":"45367","REV_AT_EPOCH":"17858","TIME_SYSTEM":"UTC","DECAY_DATE":null,"GP_ID":"233650158","CENTER_NAME":"EARTH","EPHEMERIS_TYPE":"0","MEAN_ANOMALY":"259.7779","ARG_OF_PERICENTER":"100.3337","ECCENTRICITY":"0.00011260","PERIOD":"95.592","SITE":"AFETR","FILE":"3929969","OBJECT_TYPE":"PAYLOAD","MEAN_ELEMENT_THEORY":"SGP4","LAUNCH_DATE":"2020-03-18"},{"PERIAPSIS":"545.830","MEAN_MOTION":"15.06403487","OBJECT_NAME":"STARLINK-1276","RCS_SIZE":"LARGE","BSTAR":"0.00045121000000","MEAN_MOTION_DDOT":"0.0000000000000","EPOCH":"2023-06-10T18:50:10.116384","TLE_LINE2":"2 45368  53.0550 348.8302 0001983  81.5626 278.5588 15.06403487178572","INCLINATION":"53.0550","CLASSIFICATION_TYPE":"U","OBJECT_ID":"2020-019J","APOAPSIS":"548.576","MEAN_MOTION_DOT":"0.00006446","COUNTRY_CODE":"US","SEMIMAJOR_AXIS":"6925.338","ELEMENT_SET_NO":"999","RA_OF_ASC_NODE":"348.8302","TLE_LINE1":"1 45368U 20019J   23161.78483931  .00006446  00000-0  45121-3 0  9990","OBJECT_TYPE":"PAYLOAD","MEAN_ELEMENT_THEORY":"SGP4","LAUNCH_DATE":"2020-03-18","SITE":"AFETR","FILE":"3929969","ECCENTRICITY":"0.00019830","PERIOD":"95.592","ARG_OF_PERICENTER":"81.5626","MEAN_ANOMALY":"278.5588","EPHEMERIS_TYPE":"0","CENTER_NAME":"EARTH","GP_ID":"233650408","DECAY_DATE":null,"REV_AT_EPOCH":"17857","TIME_SYSTEM":"UTC","REF_FRAME":"TEME","NORAD_CAT_ID":"45368"},{"TLE_LINE1":"1 45369U 20019K   23161.78389595 -.00002316  00000-0 -13672-3 0  9992","RA_OF_ASC_NODE":"348.8352","COUNTRY_CODE":"US","MEAN_MOTION_DOT":"-0.00002316","APOAPSIS":"547.984","ELEMENT_SET_NO":"999","SEMIMAJOR_AXIS":"6925.382","CLASSIFICATION_TYPE":"U","INCLINATION":"53.0556","TLE_LINE2":"2 45369  53.0556 348.8352 0001065 106.8981 253.2125 15.06389156178573","EPOCH":"2023-06-10T18:48:48.610080","OBJECT_ID":"2020-019K","RCS_SIZE":"LARGE","OBJECT_NAME":"STARLINK-1277","PERIAPSIS":"546.509","MEAN_MOTION":"15.06389156","MEAN_MOTION_DDOT":"0.0000000000000","BSTAR":"-0.00013672000000","NORAD_CAT_ID":"45369","REF_FRAME":"TEME","DECAY_DATE":null,"GP_ID":"233650660","CENTER_NAME":"EARTH","TIME_SYSTEM":"UTC","REV_AT_EPOCH":"17857","MEAN_ANOMALY":"253.2125","ARG_OF_PERICENTER":"106.8981","EPHEMERIS_TYPE":"0","FILE":"3929969","SITE":"AFETR","LAUNCH_DATE":"2020-03-18","MEAN_ELEMENT_THEORY":"SGP4","OBJECT_TYPE":"PAYLOAD","PERIOD":"95.593","ECCENTRICITY":"0.00010650"},{"TIME_SYSTEM":"UTC","REV_AT_EPOCH":"17859","CENTER_NAME":"EARTH","GP_ID":"233651405","DECAY_DATE":null,"NORAD_CAT_ID":"45370","REF_FRAME":"TEME","PERIOD":"95.593","ECCENTRICITY":"0.00011570","LAUNCH_DATE":"2020-03-18","MEAN_ELEMENT_THEORY":"SGP4","OBJECT_TYPE":"PAYLOAD","FILE":"3929969","SITE":"AFETR","EPHEMERIS_TYPE":"0","ARG_OF_PERICENTER":"96.3528","MEAN_ANOMALY":"263.7593","SEMIMAJOR_AXIS":"6925.375","ELEMENT_SET_NO":"999","APOAPSIS":"548.041","COUNTRY_CODE":"US","MEAN_MOTION_DOT":"0.00006093","TLE_LINE1":"1 45370U 20019L   23161.90647579  .00006093  00000-0  42765-3 0  9996","RA_OF_ASC_NODE":"348.2843","BSTAR":"0.00042765000000","MEAN_MOTION_DDOT":"0.0000000000000","OBJECT_NAME":"STARLINK-1281","MEAN_MOTION":"15.06391303","PERIAPSIS":"546.439","RCS_SIZE":"LARGE","OBJECT_ID":"2020-019L","TLE_LINE2":"2 45370  53.0549 348.2843 0001157  96.3528 263.7593 15.06391303178592","INCLINATION":"53.0549","EPOCH":"2023-06-10T21:45:19.508256","CLASSIFICATION_TYPE":"U"},{"EPOCH":"2023-06-10T20:50:53.007648","TLE_LINE2":"2 45371  53.0552 348.4428 0001162  93.4568 266.6554 15.06398310178589","INCLINATION":"53.0552","CLASSIFICATION_TYPE":"U","OBJECT_ID":"2020-019M","MEAN_MOTION":"15.06398310","PERIAPSIS":"546.414","OBJECT_NAME":"STARLINK-1287","RCS_SIZE":"LARGE","BSTAR":"0.00054061000000","MEAN_MOTION_DDOT":"0.0000000000000","RA_OF_ASC_NODE":"348.4428","TLE_LINE1":"1 45371U 20019M   23161.86866907  .00007780  00000-0  54061-3 0  9996","APOAPSIS":"548.023","COUNTRY_CODE":"US","MEAN_MOTION_DOT":"0.00007780","SEMIMAJOR_AXIS":"6925.354","ELEMENT_SET_NO":"999","ARG_OF_PERICENTER":"93.4568","MEAN_ANOMALY":"266.6554","EPHEMERIS_TYPE":"0","OBJECT_TYPE":"PAYLOAD","LAUNCH_DATE":"2020-03-18","MEAN_ELEMENT_THEORY":"SGP4","SITE":"AFETR","FILE":"3929969","ECCENTRICITY":"0.00011620","PERIOD":"95.592","REF_FRAME":"TEME","NORAD_CAT_ID":"45371","CENTER_NAME":"EARTH","GP_ID":"233649659","DECAY_DATE":null,"REV_AT_EPOCH":"17858","TIME_SYSTEM":"UTC"},{"EPHEMERIS_TYPE":"0","ARG_OF_PERICENTER":"90.5080","MEAN_ANOMALY":"269.6075","PERIOD":"95.593","ECCENTRICITY":"0.00014490","LAUNCH_DATE":"2020-03-18","MEAN_ELEMENT_THEORY":"SGP4","OBJECT_TYPE":"PAYLOAD","FILE":"3929969","SITE":"AFETR","NORAD_CAT_ID":"45372","REF_FRAME":"TEME","TIME_SYSTEM":"UTC","REV_AT_EPOCH":"17857","GP_ID":"233649909","CENTER_NAME":"EARTH","DECAY_DATE":null,"OBJECT_ID":"2020-019N","TLE_LINE2":"2 45372  53.0542 348.6870 0001449  90.5080 269.6075 15.06389512178571","INCLINATION":"53.0542","EPOCH":"2023-06-10T19:37:55.799616","CLASSIFICATION_TYPE":"U","BSTAR":"-0.00009623500000","MEAN_MOTION_DDOT":"0.0000000000000","OBJECT_NAME":"STARLINK-1288","MEAN_MOTION":"15.06389512","PERIAPSIS":"546.242","RCS_SIZE":"LARGE","TLE_LINE1":"1 45372U 20019N   23161.81800694 -.00001714  00000-0 -96235-4 0  9996","RA_OF_ASC_NODE":"348.6870","SEMIMAJOR_AXIS":"6925.381","ELEMENT_SET_NO":"999","APOAPSIS":"548.249","MEAN_MOTION_DOT":"-0.00001714","COUNTRY_CODE":"US"},{"TLE_LINE1":"1 45373U 20019P   23161.93227802  .00005519  00000-0  38913-3 0  9997","RA_OF_ASC_NODE":"348.1736","APOAPSIS":"548.039","MEAN_MOTION_DOT":"0.00005519","COUNTRY_CODE":"US","SEMIMAJOR_AXIS":"6925.352","ELEMENT_SET_NO":"999","INCLINATION":"53.0548","TLE_LINE2":"2 45373  53.0548 348.1736 0001187  86.3307 273.7818 15.06399012178597","EPOCH":"2023-06-10T22:22:28.820928","CLASSIFICATION_TYPE":"U","OBJECT_ID":"2020-019P","OBJECT_NAME":"STARLINK-1295","MEAN_MOTION":"15.06399012","PERIAPSIS":"546.395","RCS_SIZE":"LARGE","BSTAR":"0.00038913000000","MEAN_MOTION_DDOT":"0.0000000000000","NORAD_CAT_ID":"45373","REF_FRAME":"TEME","GP_ID":"233651160","CENTER_NAME":"EARTH","DECAY_DATE":null,"TIME_SYSTEM":"UTC","REV_AT_EPOCH":"17859","ARG_OF_PERICENTER":"86.3307","MEAN_ANOMALY":"273.7818","EPHEMERIS_TYPE":"0","LAUNCH_DATE":"2020-03-18","MEAN_ELEMENT_THEORY":"SGP4","OBJECT_TYPE":"PAYLOAD","FILE":"3929969","SITE":"AFETR","PERIOD":"95.592","ECCENTRICITY":"0.00011870"},{"APOAPSIS":"548.242","COUNTRY_CODE":"US","MEAN_MOTION_DOT":"-0.00000092","SEMIMAJOR_AXIS":"6925.367","ELEMENT_SET_NO":"999","RA_OF_ASC_NODE":"348.1861","TLE_LINE1":"1 45374U 20019Q   23161.92859270 -.00000092  00000-0  12748-4 0  9998","MEAN_MOTION":"15.06393857","PERIAPSIS":"546.223","OBJECT_NAME":"STARLINK-1300","RCS_SIZE":"LARGE","BSTAR":"0.00001274800000","MEAN_MOTION_DDOT":"0.0000000000000","EPOCH":"2023-06-10T22:17:10.409280","TLE_LINE2":"2 45374  53.0561 348.1861 0001458  99.4615 260.6539 15.06393857178596","INCLINATION":"53.0561","CLASSIFICATION_TYPE":"U","OBJECT_ID":"2020-019Q","CENTER_NAME":"EARTH","GP_ID":"233650906","DECAY_DATE":null,"REV_AT_EPOCH":"17859","TIME_SYSTEM":"UTC","REF_FRAME":"TEME","NORAD_CAT_ID":"45374","OBJECT_TYPE":"PAYLOAD","MEAN_ELEMENT_THEORY":"SGP4","LAUNCH_DATE":"2020-03-18","SITE":"AFETR","FILE":"3929969","ECCENTRICITY":"0.00014580","PERIOD":"95.593","ARG_OF_PERICENTER":"99.4615","MEAN_ANOMALY":"260.6539","EPHEMERIS_TYPE":"0"}];
